{
  "type": "FeatureCollection",
  "features": [
    {
      "type": "Feature",
      "properties": {
        "norad_id": 37423,
        "name": "FENGYUN 1C DEB",
        "group": "fengyun-1c-debris",
        "lat": 44.8402982139067,
        "lon": -128.45185102110028,
        "alt_km": 828.4958705232593,
        "timestamp": "2025-12-18T14:52:08.314778+00:00",
        "meta_object_name": "FENGYUN 1C DEB",
        "meta_object_id": "1999-025EGR",
        "meta_epoch": "2025-12-15T23:06:38.633760",
        "meta_mean_motion": 14.07562451,
        "meta_eccentricity": 0.00493691,
        "meta_inclination": 98.7866,
        "meta_ra_of_asc_node": 40.1169,
        "meta_arg_of_pericenter": 151.0563,
        "meta_mean_anomaly": 209.3361,
        "meta_ephemeris_type": 0,
        "meta_classification_type": "U",
        "meta_norad_cat_id": 37423,
        "meta_element_set_no": 999,
        "meta_rev_at_epoch": 63655,
        "meta_bstar": 0.00052647626,
        "meta_mean_motion_dot": 8.55e-06,
        "meta_mean_motion_ddot": 0,
        "tle_line1": "1 37423U 99025EGR 25349.96294715  .00000855  00000+0  52648-3 0  9995",
        "tle_line2": "2 37423  98.7866  40.1169 0049369 151.0563 209.3361 14.07562451636552"
      },
      "geometry": {
        "type": "Point",
        "coordinates": [
          -128.45185102110028,
          44.8402982139067
        ]
      }
    },
    {
      "type": "Feature",
      "properties": {
        "norad_id": 37424,
        "name": "FENGYUN 1C DEB",
        "group": "fengyun-1c-debris",
        "lat": -42.53194140731057,
        "lon": -66.64399263068742,
        "alt_km": 722.5472815090216,
        "timestamp": "2025-12-18T14:52:08.314788+00:00",
        "meta_object_name": "FENGYUN 1C DEB",
        "meta_object_id": "1999-025EGS",
        "meta_epoch": "2025-12-18T03:38:23.573472",
        "meta_mean_motion": 14.17877456,
        "meta_eccentricity": 0.0214773,
        "meta_inclination": 97.1982,
        "meta_ra_of_asc_node": 119.6335,
        "meta_arg_of_pericenter": 266.2363,
        "meta_mean_anomaly": 91.4237,
        "meta_ephemeris_type": 0,
        "meta_classification_type": "U",
        "meta_norad_cat_id": 37424,
        "meta_element_set_no": 999,
        "meta_rev_at_epoch": 68650,
        "meta_bstar": 0.00087369687,
        "meta_mean_motion_dot": 2.206e-05,
        "meta_mean_motion_ddot": 0,
        "tle_line1": "1 37424U 99025EGS 25352.15166173  .00002206  00000+0  87370-3 0  9999",
        "tle_line2": "2 37424  97.1982 119.6335 0214773 266.2363  91.4237 14.17877456686509"
      },
      "geometry": {
        "type": "Point",
        "coordinates": [
          -66.64399263068742,
          -42.53194140731057
        ]
      }
    },
    {
      "type": "Feature",
      "properties": {
        "norad_id": 37427,
        "name": "FENGYUN 1C DEB",
        "group": "fengyun-1c-debris",
        "lat": 19.07580213205253,
        "lon": -41.883461756252466,
        "alt_km": 631.9889681984887,
        "timestamp": "2025-12-18T14:52:08.314798+00:00",
        "meta_object_name": "FENGYUN 1C DEB",
        "meta_object_id": "1999-025EGV",
        "meta_epoch": "2025-12-18T02:54:56.658240",
        "meta_mean_motion": 14.9812711,
        "meta_eccentricity": 0.0187852,
        "meta_inclination": 98.6206,
        "meta_ra_of_asc_node": 134.5593,
        "meta_arg_of_pericenter": 280.0724,
        "meta_mean_anomaly": 77.9349,
        "meta_ephemeris_type": 0,
        "meta_classification_type": "U",
        "meta_norad_cat_id": 37427,
        "meta_element_set_no": 999,
        "meta_rev_at_epoch": 60403,
        "meta_bstar": 0.00035837255,
        "meta_mean_motion_dot": 6.036e-05,
        "meta_mean_motion_ddot": 0,
        "tle_line1": "1 37427U 99025EGV 25352.12148910  .00006036  00000+0  35837-3 0  9994",
        "tle_line2": "2 37427  98.6206 134.5593 0187852 280.0724  77.9349 14.98127110604036"
      },
      "geometry": {
        "type": "Point",
        "coordinates": [
          -41.883461756252466,
          19.07580213205253
        ]
      }
    },
    {
      "type": "Feature",
      "properties": {
        "norad_id": 37428,
        "name": "FENGYUN 1C DEB",
        "group": "fengyun-1c-debris",
        "lat": 78.607162332261,
        "lon": 76.981756455569,
        "alt_km": 729.9012557944525,
        "timestamp": "2025-12-18T14:52:08.314809+00:00",
        "meta_object_name": "FENGYUN 1C DEB",
        "meta_object_id": "1999-025EGW",
        "meta_epoch": "2025-12-14T08:18:44.705664",
        "meta_mean_motion": 14.34657068,
        "meta_eccentricity": 0.0056813,
        "meta_inclination": 97.722,
        "meta_ra_of_asc_node": 210.8336,
        "meta_arg_of_pericenter": 94.0763,
        "meta_mean_anomaly": 266.6921,
        "meta_ephemeris_type": 0,
        "meta_classification_type": "U",
        "meta_norad_cat_id": 37428,
        "meta_element_set_no": 999,
        "meta_rev_at_epoch": 63459,
        "meta_bstar": 0.0018586443,
        "meta_mean_motion_dot": 5.32e-05,
        "meta_mean_motion_ddot": 0,
        "tle_line1": "1 37428U 99025EGW 25348.34635076  .00005320  00000+0  18586-2 0  9994",
        "tle_line2": "2 37428  97.7220 210.8336 0056813  94.0763 266.6921 14.34657068634591"
      },
      "geometry": {
        "type": "Point",
        "coordinates": [
          76.981756455569,
          78.607162332261
        ]
      }
    },
    {
      "type": "Feature",
      "properties": {
        "norad_id": 37430,
        "name": "FENGYUN 1C DEB",
        "group": "fengyun-1c-debris",
        "lat": 52.13616106966179,
        "lon": 55.30762363517489,
        "alt_km": 776.3308690724243,
        "timestamp": "2025-12-18T14:52:08.314819+00:00",
        "meta_object_name": "FENGYUN 1C DEB",
        "meta_object_id": "1999-025EGY",
        "meta_epoch": "2025-12-05T03:58:16.719456",
        "meta_mean_motion": 14.28846273,
        "meta_eccentricity": 0.001883,
        "meta_inclination": 98.7668,
        "meta_ra_of_asc_node": 53.2332,
        "meta_arg_of_pericenter": 93.5332,
        "meta_mean_anomaly": 266.8003,
        "meta_ephemeris_type": 0,
        "meta_classification_type": "U",
        "meta_norad_cat_id": 37430,
        "meta_element_set_no": 999,
        "meta_rev_at_epoch": 61593,
        "meta_bstar": 0.0038447795,
        "meta_mean_motion_dot": 9.683e-05,
        "meta_mean_motion_ddot": 0,
        "tle_line1": "1 37430U 99025EGY 25339.16547129  .00009683  00000+0  38448-2 0  9993",
        "tle_line2": "2 37430  98.7668  53.2332 0018830  93.5332 266.8003 14.28846273615930"
      },
      "geometry": {
        "type": "Point",
        "coordinates": [
          55.30762363517489,
          52.13616106966179
        ]
      }
    },
    {
      "type": "Feature",
      "properties": {
        "norad_id": 37432,
        "name": "FENGYUN 1C DEB",
        "group": "fengyun-1c-debris",
        "lat": -74.2209250806266,
        "lon": 36.37179577211133,
        "alt_km": 596.130614331646,
        "timestamp": "2025-12-18T14:52:08.314829+00:00",
        "meta_object_name": "FENGYUN 1C DEB",
        "meta_object_id": "1999-025EHA",
        "meta_epoch": "2025-12-18T06:57:07.635744",
        "meta_mean_motion": 14.53484478,
        "meta_eccentricity": 0.01820098,
        "meta_inclination": 98.1832,
        "meta_ra_of_asc_node": 5.4367,
        "meta_arg_of_pericenter": 270.6812,
        "meta_mean_anomaly": 87.3534,
        "meta_ephemeris_type": 0,
        "meta_classification_type": "U",
        "meta_norad_cat_id": 37432,
        "meta_element_set_no": 999,
        "meta_rev_at_epoch": 8457,
        "meta_bstar": 0.00071615853,
        "meta_mean_motion_dot": 3.664e-05,
        "meta_mean_motion_ddot": 0,
        "tle_line1": "1 37432U 99025EHA 25352.28967171  .00003664  00000+0  71616-3 0  9994",
        "tle_line2": "2 37432  98.1832   5.4367 0182009 270.6812  87.3534 14.53484478 84575"
      },
      "geometry": {
        "type": "Point",
        "coordinates": [
          36.37179577211133,
          -74.2209250806266
        ]
      }
    },
    {
      "type": "Feature",
      "properties": {
        "norad_id": 37435,
        "name": "FENGYUN 1C DEB",
        "group": "fengyun-1c-debris",
        "lat": -77.06147757841013,
        "lon": 167.327427136499,
        "alt_km": 827.9223414873159,
        "timestamp": "2025-12-18T14:52:08.314858+00:00",
        "meta_object_name": "FENGYUN 1C DEB",
        "meta_object_id": "1999-025EHD",
        "meta_epoch": "2025-12-13T08:42:56.940192",
        "meta_mean_motion": 14.22368341,
        "meta_eccentricity": 0.00403043,
        "meta_inclination": 98.6487,
        "meta_ra_of_asc_node": 23.6617,
        "meta_arg_of_pericenter": 12.4728,
        "meta_mean_anomaly": 347.7438,
        "meta_ephemeris_type": 0,
        "meta_classification_type": "U",
        "meta_norad_cat_id": 37435,
        "meta_element_set_no": 999,
        "meta_rev_at_epoch": 88948,
        "meta_bstar": 0.0015840008,
        "meta_mean_motion_dot": 3.512e-05,
        "meta_mean_motion_ddot": 0,
        "tle_line1": "1 37435U 99025EHD 25347.36315903  .00003512  00000+0  15840-2 0  9998",
        "tle_line2": "2 37435  98.6487  23.6617 0040304  12.4728 347.7438 14.22368341889483"
      },
      "geometry": {
        "type": "Point",
        "coordinates": [
          167.327427136499,
          -77.06147757841013
        ]
      }
    }
  ]
}